<?xml version="1.0" encoding="UTF-8"?>
<ndm xmlns:xsi="http://www.w3.org/2001/XMLSchema-instance" xsi:noNamespaceSchemaLocation="https://sanaregistry.org/r/ndmxml_unqualified/ndmxml-2.0.0-master-2.0.xsd">
<omm id="CCSDS_OMM_VERS" version="2.0">
<header><CREATION_DATE/><ORIGINATOR/></header><body><segment><metadata><OBJECT_NAME>ONEWEB-0578</OBJECT_NAME><OBJECT_ID>2023-043X</OBJECT_ID><CENTER_NAME>EARTH</CENTER_NAME><REF_FRAME>TEME</REF_FRAME><TIME_SYSTEM>UTC</TIME_SYSTEM><MEAN_ELEMENT_THEORY>SGP4</MEAN_ELEMENT_THEORY></metadata><data><meanElements><EPOCH>2024-07-01T02:11:21.971328</EPOCH><MEAN_MOTION>13.21828048</MEAN_MOTION><ECCENTRICITY>.0001728</ECCENTRICITY><INCLINATION>87.9279</INCLINATION><RA_OF_ASC_NODE>26.5250</RA_OF_ASC_NODE><ARG_OF_PERICENTER>89.0027</ARG_OF_PERICENTER><MEAN_ANOMALY>271.1305</MEAN_ANOMALY></meanElements><tleParameters><EPHEMERIS_TYPE>0</EPHEMERIS_TYPE><CLASSIFICATION_TYPE>U</CLASSIFICATION_TYPE><NORAD_CAT_ID>56067</NORAD_CAT_ID><ELEMENT_SET_NO>999</ELEMENT_SET_NO><REV_AT_EPOCH>6454</REV_AT_EPOCH><BSTAR>.86231E-4</BSTAR><MEAN_MOTION_DOT>.49E-6</MEAN_MOTION_DOT><MEAN_MOTION_DDOT>0</MEAN_MOTION_DDOT></tleParameters></data></segment></body></omm>
<omm id="CCSDS_OMM_VERS" version="2.0">
<header><CREATION_DATE/><ORIGINATOR/></header><body><segment><metadata><OBJECT_NAME>ONEWEB-0579</OBJECT_NAME><OBJECT_ID>2023-043Y</OBJECT_ID><CENTER_NAME>EARTH</CENTER_NAME><REF_FRAME>TEME</REF_FRAME><TIME_SYSTEM>UTC</TIME_SYSTEM><MEAN_ELEMENT_THEORY>SGP4</MEAN_ELEMENT_THEORY></metadata><data><meanElements><EPOCH>2024-06-30T22:19:44.100192</EPOCH><MEAN_MOTION>13.21828548</MEAN_MOTION><ECCENTRICITY>.0002266</ECCENTRICITY><INCLINATION>87.9276</INCLINATION><RA_OF_ASC_NODE>26.5540</RA_OF_ASC_NODE><ARG_OF_PERICENTER>82.2243</ARG_OF_PERICENTER><MEAN_ANOMALY>277.9148</MEAN_ANOMALY></meanElements><tleParameters><EPHEMERIS_TYPE>0</EPHEMERIS_TYPE><CLASSIFICATION_TYPE>U</CLASSIFICATION_TYPE><NORAD_CAT_ID>56068</NORAD_CAT_ID><ELEMENT_SET_NO>999</ELEMENT_SET_NO><REV_AT_EPOCH>6362</REV_AT_EPOCH><BSTAR>.73639E-4</BSTAR><MEAN_MOTION_DOT>.43E-6</MEAN_MOTION_DOT><MEAN_MOTION_DDOT>0</MEAN_MOTION_DDOT></tleParameters></data></segment></body></omm>
<omm id="CCSDS_OMM_VERS" version="2.0">
<header><CREATION_DATE/><ORIGINATOR/></header><body><segment><metadata><OBJECT_NAME>ONEWEB-0581</OBJECT_NAME><OBJECT_ID>2023-043Z</OBJECT_ID><CENTER_NAME>EARTH</CENTER_NAME><REF_FRAME>TEME</REF_FRAME><TIME_SYSTEM>UTC</TIME_SYSTEM><MEAN_ELEMENT_THEORY>SGP4</MEAN_ELEMENT_THEORY></metadata><data><meanElements><EPOCH>2024-06-30T19:16:11.951040</EPOCH><MEAN_MOTION>13.16596395</MEAN_MOTION><ECCENTRICITY>.0002359</ECCENTRICITY><INCLINATION>87.9096</INCLINATION><RA_OF_ASC_NODE>11.4162</RA_OF_ASC_NODE><ARG_OF_PERICENTER>97.9115</ARG_OF_PERICENTER><MEAN_ANOMALY>262.2284</MEAN_ANOMALY></meanElements><tleParameters><EPHEMERIS_TYPE>0</EPHEMERIS_TYPE><CLASSIFICATION_TYPE>U</CLASSIFICATION_TYPE><NORAD_CAT_ID>56069</NORAD_CAT_ID><ELEMENT_SET_NO>999</ELEMENT_SET_NO><REV_AT_EPOCH>6469</REV_AT_EPOCH><BSTAR>.17617E-3</BSTAR><MEAN_MOTION_DOT>.8E-6</MEAN_MOTION_DOT><MEAN_MOTION_DDOT>0</MEAN_MOTION_DDOT></tleParameters></data></segment></body></omm>
<omm id="CCSDS_OMM_VERS" version="2.0">
<header><CREATION_DATE/><ORIGINATOR/></header><body><segment><metadata><OBJECT_NAME>ONEWEB-0609</OBJECT_NAME><OBJECT_ID>2023-043AA</OBJECT_ID><CENTER_NAME>EARTH</CENTER_NAME><REF_FRAME>TEME</REF_FRAME><TIME_SYSTEM>UTC</TIME_SYSTEM><MEAN_ELEMENT_THEORY>SGP4</MEAN_ELEMENT_THEORY></metadata><data><meanElements><EPOCH>2024-06-30T21:01:11.806176</EPOCH><MEAN_MOTION>13.15549695</MEAN_MOTION><ECCENTRICITY>.0001816</ECCENTRICITY><INCLINATION>87.9027</INCLINATION><RA_OF_ASC_NODE>41.7642</RA_OF_ASC_NODE><ARG_OF_PERICENTER>80.2206</ARG_OF_PERICENTER><MEAN_ANOMALY>279.9130</MEAN_ANOMALY></meanElements><tleParameters><EPHEMERIS_TYPE>0</EPHEMERIS_TYPE><CLASSIFICATION_TYPE>U</CLASSIFICATION_TYPE><NORAD_CAT_ID>56070</NORAD_CAT_ID><ELEMENT_SET_NO>999</ELEMENT_SET_NO><REV_AT_EPOCH>6225</REV_AT_EPOCH><BSTAR>-.28799E-3</BSTAR><MEAN_MOTION_DOT>-.96E-6</MEAN_MOTION_DOT><MEAN_MOTION_DDOT>0</MEAN_MOTION_DDOT></tleParameters></data></segment></body></omm>
<omm id="CCSDS_OMM_VERS" version="2.0">
<header><CREATION_DATE/><ORIGINATOR/></header><body><segment><metadata><OBJECT_NAME>ONEWEB-0613</OBJECT_NAME><OBJECT_ID>2023-043AB</OBJECT_ID><CENTER_NAME>EARTH</CENTER_NAME><REF_FRAME>TEME</REF_FRAME><TIME_SYSTEM>UTC</TIME_SYSTEM><MEAN_ELEMENT_THEORY>SGP4</MEAN_ELEMENT_THEORY></metadata><data><meanElements><EPOCH>2024-06-30T20:54:21.924576</EPOCH><MEAN_MOTION>13.15547770</MEAN_MOTION><ECCENTRICITY>.0002104</ECCENTRICITY><INCLINATION>87.9031</INCLINATION><RA_OF_ASC_NODE>41.7619</RA_OF_ASC_NODE><ARG_OF_PERICENTER>76.8246</ARG_OF_PERICENTER><MEAN_ANOMALY>283.3119</MEAN_ANOMALY></meanElements><tleParameters><EPHEMERIS_TYPE>0</EPHEMERIS_TYPE><CLASSIFICATION_TYPE>U</CLASSIFICATION_TYPE><NORAD_CAT_ID>56071</NORAD_CAT_ID><ELEMENT_SET_NO>999</ELEMENT_SET_NO><REV_AT_EPOCH>6225</REV_AT_EPOCH><BSTAR>-.23785E-3</BSTAR><MEAN_MOTION_DOT>-.77E-6</MEAN_MOTION_DOT><MEAN_MOTION_DDOT>0</MEAN_MOTION_DDOT></tleParameters></data></segment></body></omm>
<omm id="CCSDS_OMM_VERS" version="2.0">
<header><CREATION_DATE/><ORIGINATOR/></header><body><segment><metadata><OBJECT_NAME>ONEWEB-0630</OBJECT_NAME><OBJECT_ID>2023-043AC</OBJECT_ID><CENTER_NAME>EARTH</CENTER_NAME><REF_FRAME>TEME</REF_FRAME><TIME_SYSTEM>UTC</TIME_SYSTEM><MEAN_ELEMENT_THEORY>SGP4</MEAN_ELEMENT_THEORY></metadata><data><meanElements><EPOCH>2024-06-30T20:47:29.984928</EPOCH><MEAN_MOTION>13.15546702</MEAN_MOTION><ECCENTRICITY>.0002068</ECCENTRICITY><INCLINATION>87.9028</INCLINATION><RA_OF_ASC_NODE>41.7532</RA_OF_ASC_NODE><ARG_OF_PERICENTER>73.4096</ARG_OF_PERICENTER><MEAN_ANOMALY>286.7261</MEAN_ANOMALY></meanElements><tleParameters><EPHEMERIS_TYPE>0</EPHEMERIS_TYPE><CLASSIFICATION_TYPE>U</CLASSIFICATION_TYPE><NORAD_CAT_ID>56072</NORAD_CAT_ID><ELEMENT_SET_NO>999</ELEMENT_SET_NO><REV_AT_EPOCH>6224</REV_AT_EPOCH><BSTAR>-.21171E-3</BSTAR><MEAN_MOTION_DOT>-.67E-6</MEAN_MOTION_DOT><MEAN_MOTION_DDOT>0</MEAN_MOTION_DDOT></tleParameters></data></segment></body></omm>
<omm id="CCSDS_OMM_VERS" version="2.0">
<header><CREATION_DATE/><ORIGINATOR/></header><body><segment><metadata><OBJECT_NAME>ONEWEB-0632</OBJECT_NAME><OBJECT_ID>2023-043AD</OBJECT_ID><CENTER_NAME>EARTH</CENTER_NAME><REF_FRAME>TEME</REF_FRAME><TIME_SYSTEM>UTC</TIME_SYSTEM><MEAN_ELEMENT_THEORY>SGP4</MEAN_ELEMENT_THEORY></metadata><data><meanElements><EPOCH>2024-06-30T20:40:40.626912</EPOCH><MEAN_MOTION>13.15547674</MEAN_MOTION><ECCENTRICITY>.0002171</ECCENTRICITY><INCLINATION>87.9029</INCLINATION><RA_OF_ASC_NODE>41.7732</RA_OF_ASC_NODE><ARG_OF_PERICENTER>88.4146</ARG_OF_PERICENTER><MEAN_ANOMALY>271.7233</MEAN_ANOMALY></meanElements><tleParameters><EPHEMERIS_TYPE>0</EPHEMERIS_TYPE><CLASSIFICATION_TYPE>U</CLASSIFICATION_TYPE><NORAD_CAT_ID>56073</NORAD_CAT_ID><ELEMENT_SET_NO>999</ELEMENT_SET_NO><REV_AT_EPOCH>6224</REV_AT_EPOCH><BSTAR>-.11216E-3</BSTAR><MEAN_MOTION_DOT>-.29E-6</MEAN_MOTION_DOT><MEAN_MOTION_DDOT>0</MEAN_MOTION_DDOT></tleParameters></data></segment></body></omm>
<omm id="CCSDS_OMM_VERS" version="2.0">
<header><CREATION_DATE/><ORIGINATOR/></header><body><segment><metadata><OBJECT_NAME>ONEWEB-0633</OBJECT_NAME><OBJECT_ID>2023-043AE</OBJECT_ID><CENTER_NAME>EARTH</CENTER_NAME><REF_FRAME>TEME</REF_FRAME><TIME_SYSTEM>UTC</TIME_SYSTEM><MEAN_ELEMENT_THEORY>SGP4</MEAN_ELEMENT_THEORY></metadata><data><meanElements><EPOCH>2024-06-30T20:31:31.557504</EPOCH><MEAN_MOTION>13.15550378</MEAN_MOTION><ECCENTRICITY>.0002017</ECCENTRICITY><INCLINATION>87.9025</INCLINATION><RA_OF_ASC_NODE>41.7557</RA_OF_ASC_NODE><ARG_OF_PERICENTER>66.7423</ARG_OF_PERICENTER><MEAN_ANOMALY>293.3920</MEAN_ANOMALY></meanElements><tleParameters><EPHEMERIS_TYPE>0</EPHEMERIS_TYPE><CLASSIFICATION_TYPE>U</CLASSIFICATION_TYPE><NORAD_CAT_ID>56074</NORAD_CAT_ID><ELEMENT_SET_NO>999</ELEMENT_SET_NO><REV_AT_EPOCH>6222</REV_AT_EPOCH><BSTAR>.10128E-3</BSTAR><MEAN_MOTION_DOT>.51E-6</MEAN_MOTION_DOT><MEAN_MOTION_DDOT>0</MEAN_MOTION_DDOT></tleParameters></data></segment></body></omm>

</ndm>
