ONEWEB-0578             
1 56067U 23043X   24183.09122652  .00000049  00000+0  86231-4 0  9997
2 56067  87.9279  26.5250 0001728  89.0027 271.1305 13.21828048 64547
ONEWEB-0579             
1 56068U 23043Y   24182.93037153  .00000043  00000+0  73639-4 0  9993
2 56068  87.9276  26.5540 0002266  82.2243 277.9148 13.21828548 63622
ONEWEB-0581             
1 56069U 23043Z   24182.80291610  .00000080  00000+0  17617-3 0  9994
2 56069  87.9096  11.4162 0002359  97.9115 262.2284 13.16596395 64692
ONEWEB-0609             
1 56070U 23043AA  24182.87583109 -.00000096  00000+0 -28799-3 0  9992
2 56070  87.9027  41.7642 0001816  80.2206 279.9130 13.15549695 62255
ONEWEB-0613             
1 56071U 23043AB  24182.87108709 -.00000077  00000+0 -23785-3 0  9991
2 56071  87.9031  41.7619 0002104  76.8246 283.3119 13.15547770 62259
ONEWEB-0630             
1 56072U 23043AC  24182.86631927 -.00000067  00000+0 -21171-3 0  9990
2 56072  87.9028  41.7532 0002068  73.4096 286.7261 13.15546702 62243
ONEWEB-0632             
1 56073U 23043AD  24182.86158133 -.00000029  00000+0 -11216-3 0  9991
2 56073  87.9029  41.7732 0002171  88.4146 271.7233 13.15547674 62246
ONEWEB-0633             
1 56074U 23043AE  24182.85522636  .00000051  00000+0  10128-3 0  9998
2 56074  87.9025  41.7557 0002017  66.7423 293.3920 13.15550378 62220
